CCSDS_OMM_VERS = 2.0
CREATION_DATE  = 
ORIGINATOR     = 

OBJECT_NAME    = SL-3 R/B
OBJECT_ID      = 1982-079B
CENTER_NAME    = EARTH
REF_FRAME      = TEME
TIME_SYSTEM    = UTC
MEAN_ELEMENT_THEORY = SGP/SGP4

EPOCH          = 2026-04-01T19:54:19.518048
MEAN_MOTION    = 15.25106671
ECCENTRICITY   = .0025504
INCLINATION    = 81.1480
RA_OF_ASC_NODE = 165.7540
ARG_OF_PERICENTER = 88.8481
MEAN_ANOMALY   = 271.5674

EPHEMERIS_TYPE = 0
CLASSIFICATION_TYPE = U
NORAD_CAT_ID   = 13403
ELEMENT_SET_NO = 999
REV_AT_EPOCH   = 38122
BSTAR          = .23629E-3
MEAN_MOTION_DOT = .5995E-4
MEAN_MOTION_DDOT = 0

CCSDS_OMM_VERS = 2.0
CREATION_DATE  = 
ORIGINATOR     = 

OBJECT_NAME    = SL-14 R/B
OBJECT_ID      = 1982-092B
CENTER_NAME    = EARTH
REF_FRAME      = TEME
TIME_SYSTEM    = UTC
MEAN_ELEMENT_THEORY = SGP/SGP4

EPOCH          = 2026-04-01T19:37:28.097184
MEAN_MOTION    = 14.86687285
ECCENTRICITY   = .0019274
INCLINATION    = 82.5652
RA_OF_ASC_NODE = 119.7624
ARG_OF_PERICENTER = 221.0558
MEAN_ANOMALY   = 312.1011

EPHEMERIS_TYPE = 0
CLASSIFICATION_TYPE = U
NORAD_CAT_ID   = 13553
ELEMENT_SET_NO = 999
REV_AT_EPOCH   = 33236
BSTAR          = .53659E-4
MEAN_MOTION_DOT = .503E-5
MEAN_MOTION_DDOT = 0

CCSDS_OMM_VERS = 2.0
CREATION_DATE  = 
ORIGINATOR     = 

OBJECT_NAME    = SL-3 R/B
OBJECT_ID      = 1983-010B
CENTER_NAME    = EARTH
REF_FRAME      = TEME
TIME_SYSTEM    = UTC
MEAN_ELEMENT_THEORY = SGP/SGP4

EPOCH          = 2026-04-01T09:40:46.759872
MEAN_MOTION    = 15.47123509
ECCENTRICITY   = .0015664
INCLINATION    = 81.1046
RA_OF_ASC_NODE = 334.3871
ARG_OF_PERICENTER = 332.7155
MEAN_ANOMALY   = 27.3265

EPHEMERIS_TYPE = 0
CLASSIFICATION_TYPE = U
NORAD_CAT_ID   = 13819
ELEMENT_SET_NO = 999
REV_AT_EPOCH   = 36145
BSTAR          = .28683E-3
MEAN_MOTION_DOT = .14646E-3
MEAN_MOTION_DDOT = 0

CCSDS_OMM_VERS = 2.0
CREATION_DATE  = 
ORIGINATOR     = 

OBJECT_NAME    = SL-3 R/B
OBJECT_ID      = 1983-075B
CENTER_NAME    = EARTH
REF_FRAME      = TEME
TIME_SYSTEM    = UTC
MEAN_ELEMENT_THEORY = SGP/SGP4

EPOCH          = 2026-04-01T20:07:42.716640
MEAN_MOTION    = 15.38974567
ECCENTRICITY   = .0022643
INCLINATION    = 97.6132
RA_OF_ASC_NODE = 97.3021
ARG_OF_PERICENTER = 142.9110
MEAN_ANOMALY   = 217.3705

EPHEMERIS_TYPE = 0
CLASSIFICATION_TYPE = U
NORAD_CAT_ID   = 14208
ELEMENT_SET_NO = 999
REV_AT_EPOCH   = 33371
BSTAR          = .34037E-3
MEAN_MOTION_DOT = .13166E-3
MEAN_MOTION_DDOT = 0

CCSDS_OMM_VERS = 2.0
CREATION_DATE  = 
ORIGINATOR     = 

OBJECT_NAME    = COSMOS 1536
OBJECT_ID      = 1984-013A
CENTER_NAME    = EARTH
REF_FRAME      = TEME
TIME_SYSTEM    = UTC
MEAN_ELEMENT_THEORY = SGP/SGP4

EPOCH          = 2026-04-01T16:49:13.516032
MEAN_MOTION    = 15.24147538
ECCENTRICITY   = .0013804
INCLINATION    = 82.5414
RA_OF_ASC_NODE = 84.9639
ARG_OF_PERICENTER = 193.7603
MEAN_ANOMALY   = 166.3260

EPHEMERIS_TYPE = 0
CLASSIFICATION_TYPE = U
NORAD_CAT_ID   = 14699
ELEMENT_SET_NO = 999
REV_AT_EPOCH   = 27612
BSTAR          = .30592E-3
MEAN_MOTION_DOT = .7492E-4
MEAN_MOTION_DDOT = 0

CCSDS_OMM_VERS = 2.0
CREATION_DATE  = 
ORIGINATOR     = 

OBJECT_NAME    = SL-14 R/B
OBJECT_ID      = 1984-027B
CENTER_NAME    = EARTH
REF_FRAME      = TEME
TIME_SYSTEM    = UTC
MEAN_ELEMENT_THEORY = SGP/SGP4

EPOCH          = 2026-04-01T15:43:14.546208
MEAN_MOTION    = 14.86001483
ECCENTRICITY   = .0016525
INCLINATION    = 82.5423
RA_OF_ASC_NODE = 223.4729
ARG_OF_PERICENTER = 256.2708
MEAN_ANOMALY   = 103.6669

EPHEMERIS_TYPE = 0
CLASSIFICATION_TYPE = U
NORAD_CAT_ID   = 14820
ELEMENT_SET_NO = 999
REV_AT_EPOCH   = 25104
BSTAR          = .73248E-4
MEAN_MOTION_DOT = .665E-5
MEAN_MOTION_DDOT = 0

CCSDS_OMM_VERS = 2.0
CREATION_DATE  = 
ORIGINATOR     = 

OBJECT_NAME    = SL-8 R/B
OBJECT_ID      = 1985-006B
CENTER_NAME    = EARTH
REF_FRAME      = TEME
TIME_SYSTEM    = UTC
MEAN_ELEMENT_THEORY = SGP/SGP4

EPOCH          = 2026-04-01T20:06:54.641088
MEAN_MOTION    = 14.37799995
ECCENTRICITY   = .0017532
INCLINATION    = 74.0458
RA_OF_ASC_NODE = 218.5511
ARG_OF_PERICENTER = 129.5267
MEAN_ANOMALY   = 344.9206

EPHEMERIS_TYPE = 0
CLASSIFICATION_TYPE = U
NORAD_CAT_ID   = 15483
ELEMENT_SET_NO = 999
REV_AT_EPOCH   = 15735
BSTAR          = .12193E-3
MEAN_MOTION_DOT = .342E-5
MEAN_MOTION_DDOT = 0

CCSDS_OMM_VERS = 2.0
CREATION_DATE  = 
ORIGINATOR     = 

OBJECT_NAME    = SL-12 R/B(2)
OBJECT_ID      = 1985-042D
CENTER_NAME    = EARTH
REF_FRAME      = TEME
TIME_SYSTEM    = UTC
MEAN_ELEMENT_THEORY = SGP/SGP4

EPOCH          = 2026-04-01T13:52:38.957952
MEAN_MOTION    = 14.21988978
ECCENTRICITY   = .0032847
INCLINATION    = 71.1095
RA_OF_ASC_NODE = 39.3692
ARG_OF_PERICENTER = 90.1454
MEAN_ANOMALY   = 82.2174

EPHEMERIS_TYPE = 0
CLASSIFICATION_TYPE = U
NORAD_CAT_ID   = 15772
ELEMENT_SET_NO = 999
REV_AT_EPOCH   = 11764
BSTAR          = .8096E-4
MEAN_MOTION_DOT = .132E-5
MEAN_MOTION_DDOT = 0

CCSDS_OMM_VERS = 2.0
CREATION_DATE  = 
ORIGINATOR     = 

OBJECT_NAME    = SL-14 R/B
OBJECT_ID      = 1985-069B
CENTER_NAME    = EARTH
REF_FRAME      = TEME
TIME_SYSTEM    = UTC
MEAN_ELEMENT_THEORY = SGP/SGP4

EPOCH          = 2026-04-01T11:57:23.042304
MEAN_MOTION    = 14.86457907
ECCENTRICITY   = .0020202
INCLINATION    = 82.5306
RA_OF_ASC_NODE = 3.4919
ARG_OF_PERICENTER = 114.7863
MEAN_ANOMALY   = 245.5458

EPHEMERIS_TYPE = 0
CLASSIFICATION_TYPE = U
NORAD_CAT_ID   = 15945
ELEMENT_SET_NO = 999
REV_AT_EPOCH   = 17622
BSTAR          = .63475E-4
MEAN_MOTION_DOT = .587E-5
MEAN_MOTION_DDOT = 0

CCSDS_OMM_VERS = 2.0
CREATION_DATE  = 
ORIGINATOR     = 

OBJECT_NAME    = SL-16 R/B
OBJECT_ID      = 1985-097B
CENTER_NAME    = EARTH
REF_FRAME      = TEME
TIME_SYSTEM    = UTC
MEAN_ELEMENT_THEORY = SGP/SGP4

EPOCH          = 2026-04-01T11:04:07.741344
MEAN_MOTION    = 14.16603060
ECCENTRICITY   = .0009347
INCLINATION    = 71.0007
RA_OF_ASC_NODE = 92.6109
ARG_OF_PERICENTER = 232.9843
MEAN_ANOMALY   = 288.9924

EPHEMERIS_TYPE = 0
CLASSIFICATION_TYPE = U
NORAD_CAT_ID   = 16182
ELEMENT_SET_NO = 999
REV_AT_EPOCH   = 9045
BSTAR          = -.69608E-4
MEAN_MOTION_DOT = -.187E-5
MEAN_MOTION_DDOT = 0

CCSDS_OMM_VERS = 2.0
CREATION_DATE  = 
ORIGINATOR     = 

OBJECT_NAME    = SL-14 R/B
OBJECT_ID      = 1986-006B
CENTER_NAME    = EARTH
REF_FRAME      = TEME
TIME_SYSTEM    = UTC
MEAN_ELEMENT_THEORY = SGP/SGP4

EPOCH          = 2026-04-01T20:57:22.812480
MEAN_MOTION    = 14.86854473
ECCENTRICITY   = .0076115
INCLINATION    = 82.5258
RA_OF_ASC_NODE = 237.9133
ARG_OF_PERICENTER = 194.7849
MEAN_ANOMALY   = 165.1144

EPHEMERIS_TYPE = 0
CLASSIFICATION_TYPE = U
NORAD_CAT_ID   = 16496
ELEMENT_SET_NO = 999
REV_AT_EPOCH   = 15265
BSTAR          = .12045E-3
MEAN_MOTION_DOT = .1159E-4
MEAN_MOTION_DDOT = 0

CCSDS_OMM_VERS = 2.0
CREATION_DATE  = 
ORIGINATOR     = 

OBJECT_NAME    = COSMOS 1743
OBJECT_ID      = 1986-034A
CENTER_NAME    = EARTH
REF_FRAME      = TEME
TIME_SYSTEM    = UTC
MEAN_ELEMENT_THEORY = SGP/SGP4

EPOCH          = 2026-04-01T19:20:47.141952
MEAN_MOTION    = 15.60572127
ECCENTRICITY   = .0005141
INCLINATION    = 82.5313
RA_OF_ASC_NODE = 49.5333
ARG_OF_PERICENTER = 161.1896
MEAN_ANOMALY   = 198.9551

EPHEMERIS_TYPE = 0
CLASSIFICATION_TYPE = U
NORAD_CAT_ID   = 16719
ELEMENT_SET_NO = 999
REV_AT_EPOCH   = 18385
BSTAR          = .68169E-3
MEAN_MOTION_DOT = .56605E-3
MEAN_MOTION_DDOT = 0

